     2.10           N:  GPS NAV DATA                        RINEX VERSION / TYPE
JPS2RIN V1.2.25     JAVAD GNSS          29-May-2018 14:59   PGM / RUN BY / DATE 
     .6519D-08   .2235D-07  -.5960D-07  -.1192D-06          ION ALPHA
     .8602D+05   .9830D+05  -.6554D+05  -.5243D+06          ION BETA
     .000000000000D+00  .177635683940D-14   405504      979 DELTA-UTC: A0,A1,T,W
    18                                                      LEAP SECONDS
                                                            END OF HEADER       
17 18  5 29 12  0  0.0 -.934335403144D-04  .375166564481D-11  .000000000000D+00
     .890000000000D+02 -.131406250000D+03  .393266381123D-08 -.131228230141D+01
    -.673718750477D-05  .123468310339D-01  .729970633984D-05  .515356772232D+04
     .216000000000D+06  .800937414169D-07  .253311086866D+01  .335276126862D-06
     .982877603655D+00  .250937500000D+03 -.177889515083D+01 -.791604402072D-08
    -.432875173846D-09  .100000000000D+01  .200300000000D+04  .000000000000D+00
     .300000000000D+01  .000000000000D+00 -.111758708954D-07  .890000000000D+02
     .216000000000D+06
18 18  5 29  7 59 44.0  .149928964674D-04  .477484718431D-11  .000000000000D+00
     .600000000000D+01 -.188750000000D+02  .458233372974D-08  .527901537561D+00
    -.109337270260D-05  .145431866404D-01  .111442059278D-04  .515365741348D+04
     .201584000000D+06 -.165775418282D-06 -.279535467975D+01  .204890966415D-07
     .949959903174D+00  .161593750000D+03  .130679937954D+01 -.818212653270D-08
     .471448209139D-09  .100000000000D+01  .200300000000D+04  .000000000000D+00
     .200000000000D+01  .000000000000D+00 -.698491930962D-08  .600000000000D+01
     .201584000000D+06
19 18  5 29 12  0  0.0 -.432644970715D-03  .295585778076D-11  .000000000000D+00
     .580000000000D+02 -.143656250000D+03  .382480217551D-08  .164269685152D+01
    -.774115324020D-05  .989978690632D-02  .776723027229D-05  .515372224808D+04
     .216000000000D+06 -.577419996262D-07  .258008588940D+01 -.186264514923D-06
     .980432303901D+00  .247656250000D+03  .118985866026D+01 -.783711216146D-08
    -.429660754238D-09  .100000000000D+01  .200300000000D+04  .000000000000D+00
     .200000000000D+01  .000000000000D+00 -.153668224812D-07  .580000000000D+02
     .216000000000D+06
20 18  5 29 16  0  0.0  .509299337864D-03  .909494701773D-12  .000000000000D+00
     .370000000000D+02  .232500000000D+02  .548487132405D-08 -.112268939693D+01
     .129081308842D-05  .426834041718D-02  .541843473911D-05  .515483406448D+04
     .230400000000D+06 -.596046447754D-07 -.181523826814D+01  .502914190292D-07
     .927944026216D+00  .259687500000D+03  .195538886740D+01 -.850856870175D-08
     .397159400426D-09  .100000000000D+01  .200300000000D+04  .000000000000D+00
     .200000000000D+01  .000000000000D+00 -.838190317154D-08  .370000000000D+02
     .230400000000D+06
21 18  5 29 16  0  0.0 -.388625077903D-03  .511590769747D-11  .000000000000D+00
     .480000000000D+02 -.321562500000D+02  .436625330055D-08 -.308345507782D+01
    -.161491334438D-05  .243872813880D-01  .112615525723D-04  .515370530510D+04
     .230400000000D+06  .379979610443D-06 -.280269858703D+01  .502914190292D-07
     .944221949331D+00  .146468750000D+03 -.155550082339D+01 -.744245286518D-08
     .352157525917D-09  .100000000000D+01  .200300000000D+04  .000000000000D+00
     .200000000000D+01  .000000000000D+00 -.102445483208D-07  .480000000000D+02
     .230400000000D+06
22 18  5 29  2  0  0.0 -.407567713410D-03 -.128466126625D-10  .000000000000D+00
     .410000000000D+02  .135937500000D+02  .595167648264D-08 -.850947376620D+00
     .741332769394D-06  .737804558594D-02  .443868339062D-05  .515379313278D+04
     .180000000000D+06 -.149011611938D-06 -.176487431428D+01 -.167638063431D-07
     .924643372891D+00  .274000000000D+03 -.153606777365D+01 -.884608276057D-08
     .105718689322D-09  .100000000000D+01  .200300000000D+04  .000000000000D+00
     .200000000000D+01  .000000000000D+00 -.176951289177D-07  .410000000000D+02
     .180000000000D+06
23 18  5 29  6  0  0.0 -.216544605792D-03  .454747350886D-12  .000000000000D+00
     .103000000000D+03 -.203437500000D+02  .512199906611D-08  .605220807407D+00
    -.765547156334D-06  .125411418267D-01  .888481736183D-05  .515379063416D+04
     .194400000000D+06 -.126659870148D-06 -.672831414106D+00  .121071934700D-06
     .943581191213D+00  .199843750000D+03 -.236009331902D+01 -.835391940285D-08
    -.719315676671D-09  .100000000000D+01  .200300000000D+04  .000000000000D+00
     .200000000000D+01  .000000000000D+00 -.200234353542D-07  .103000000000D+03
     .194400000000D+06
24 18  5 29 14  0  0.0 -.504157505929D-04 -.568434188608D-12  .000000000000D+00
     .850000000000D+02  .113500000000D+03  .474734060293D-08 -.206319847627D+01
     .572577118874D-05  .694114412181D-02  .102482736111D-04  .515365471268D+04
     .223200000000D+06  .782310962677D-07  .346023887478D+00 -.128522515297D-06
     .942077219263D+00  .171312500000D+03  .542291455176D+00 -.803962059675D-08
     .166792661870D-09  .100000000000D+01  .200300000000D+04  .000000000000D+00
     .300000000000D+01  .000000000000D+00  .279396772385D-08  .850000000000D+02
     .223200000000D+06
25 18  5 29 16  0  0.0 -.592679716647D-03 -.591171556152D-11  .000000000000D+00
     .840000000000D+02  .467187500000D+02  .459947730098D-08 -.302842257348D+01
     .230409204960D-05  .750039308332D-02  .750645995140D-06  .515364123726D+04
     .230400000000D+06 -.204890966415D-07  .143866147556D+01 -.210478901863D-06
     .973958076555D+00  .370156250000D+03  .862913925086D+00 -.831070331701D-08
     .131434046184D-09  .100000000000D+01  .200300000000D+04  .000000000000D+00
     .300000000000D+01  .000000000000D+00  .605359673500D-08  .840000000000D+02
     .230400000000D+06
26 18  5 29 16  0  0.0 -.133127439767D-03  .125055521494D-10  .000000000000D+00
     .800000000000D+02  .489687500000D+02  .506271088223D-08  .271835642973D+01
     .256299972534D-05  .279434479307D-02  .108033418655D-05  .515366209221D+04
     .230400000000D+06 -.856816768646D-07  .141665091777D+01  .260770320892D-07
     .955506299598D+00  .356531250000D+03  .127817686360D+00 -.848356766036D-08
     .164292557730D-09  .100000000000D+01  .200300000000D+04  .000000000000D+00
     .200000000000D+01  .000000000000D+00  .745058059692D-08  .800000000000D+02
     .230400000000D+06
27 18  5 29  6  0  0.0  .367835164070D-03 -.113686837722D-11  .000000000000D+00
     .920000000000D+02 -.128718750000D+03  .393730686178D-08  .193224403022D+01
    -.668130815029D-05  .596577313263D-02  .696070492268D-05  .515368925095D+04
     .194400000000D+06 -.540167093277D-07  .247921481759D+01  .931322574615D-08
     .977567347078D+00  .254062500000D+03  .426727986956D+00 -.790032908042D-08
    -.250010413937D-09  .100000000000D+01  .200300000000D+04  .000000000000D+00
     .200000000000D+01  .000000000000D+00  .139698386192D-08  .920000000000D+02
     .194400000000D+06
28 18  5 29 10  0  0.0  .719248782843D-03  .318323145621D-11  .000000000000D+00
     .730000000000D+02  .155625000000D+02  .431839416416D-08 -.136631641684D+01
     .105239450932D-05  .194866537349D-01  .105239450932D-05  .515367732620D+04
     .208800000000D+06 -.227242708206D-06  .152182967329D+01  .476837158203D-06
     .985590926092D+00  .374062500000D+03 -.151993765208D+01 -.838534928346D-08
    -.128576784311D-09  .100000000000D+01  .200300000000D+04  .000000000000D+00
     .400000000000D+01  .000000000000D+00 -.111758708954D-07  .730000000000D+02
     .208800000000D+06
29 18  5 29 16  0  0.0  .441692303866D-03 -.648014975013D-11  .000000000000D+00
     .330000000000D+02 -.135406250000D+03  .386516099947D-08  .186512118821D+01
    -.721588730812D-05  .789023935795D-03  .690482556820D-05  .515369523239D+04
     .230400000000D+06  .186264514923D-08  .254359907696D+01  .558793544769D-08
     .984160979261D+00  .258156250000D+03  .117099820544D+01 -.781211112007D-08
    -.428946438769D-09  .100000000000D+01  .200300000000D+04  .000000000000D+00
     .200000000000D+01  .000000000000D+00 -.102445483208D-07  .330000000000D+02
     .230400000000D+06
30 18  5 29 10  0  0.0  .687479041517D-04 -.432009983342D-11  .000000000000D+00
     .340000000000D+02  .124250000000D+03  .476626996285D-08  .125981624253D+01
     .664591789246D-05  .342105166055D-02  .899285078049D-05  .515374399757D+04
     .208800000000D+06  .651925802231D-07  .439424961642D+00 -.204890966415D-07
     .944568327371D+00  .193750000000D+03 -.307870062918D+01 -.820534178542D-08
     .200008331150D-10  .100000000000D+01  .200300000000D+04  .000000000000D+00
     .200000000000D+01  .000000000000D+00  .372529029846D-08  .340000000000D+02
     .208800000000D+06
31 18  5 29 16  0  0.0  .118283554912D-03 -.261479726760D-11  .000000000000D+00
     .490000000000D+02  .111000000000D+03  .431946563737D-08 -.215019425140D+01
     .561960041523D-05  .876210595015D-02  .985898077488D-05  .515367383957D+04
     .230400000000D+06 -.149011611938D-06  .418212481257D+00 -.162050127983D-06
     .963633356660D+00  .195437500000D+03 -.129020058729D+00 -.784818405122D-08
     .223580741607D-09  .100000000000D+01  .200300000000D+04  .000000000000D+00
     .200000000000D+01  .000000000000D+00 -.135041773319D-07  .490000000000D+02
     .230400000000D+06
32 18  5 29 12  0  0.0 -.502638518810D-03  .568434188608D-11  .000000000000D+00
     .350000000000D+02 -.185000000000D+02  .470233872843D-08 -.497422874082D+00
    -.882893800735D-06  .214658374898D-02  .889040529728D-05  .515366906166D+04
     .216000000000D+06 -.931322574615D-08 -.666393034105D+00  .633299350739D-07
     .957131497717D+00  .207156250000D+03 -.255365114843D+01 -.797283210046D-08
    -.467876631797D-09  .100000000000D+01  .200300000000D+04  .000000000000D+00
     .200000000000D+01  .000000000000D+00  .465661287308D-09  .350000000000D+02
     .216000000000D+06
